[{"OBJECT_NAME":"SL-8 R/B","OBJECT_ID":"1979-089B","EPOCH":"2026-03-27T07:02:27.771936","MEAN_MOTION":14.4236079,"ECCENTRICITY":0.00168132,"INCLINATION":74.0683,"RA_OF_ASC_NODE":58.4535,"ARG_OF_PERICENTER":228.9491,"MEAN_ANOMALY":131.0213,"EPHEMERIS_TYPE":0,"CLASSIFICATION_TYPE":"U","NORAD_CAT_ID":11574,"ELEMENT_SET_NO":999,"REV_AT_EPOCH":43864,"BSTAR":9.3950863e-5,"MEAN_MOTION_DOT":2.84e-6,"MEAN_MOTION_DDOT":0},{"OBJECT_NAME":"SL-14 R/B","OBJECT_ID":"1980-005B","EPOCH":"2026-03-27T01:01:52.354848","MEAN_MOTION":14.90949324,"ECCENTRICITY":0.00172095,"INCLINATION":82.5114,"RA_OF_ASC_NODE":290.7718,"ARG_OF_PERICENTER":104.2777,"MEAN_ANOMALY":256.0354,"EPHEMERIS_TYPE":0,"CLASSIFICATION_TYPE":"U","NORAD_CAT_ID":11672,"ELEMENT_SET_NO":999,"REV_AT_EPOCH":47907,"BSTAR":5.3816624e-5,"MEAN_MOTION_DOT":5.58e-6,"MEAN_MOTION_DDOT":0},{"OBJECT_NAME":"SL-8 R/B","OBJECT_ID":"1981-003B","EPOCH":"2026-03-27T00:24:12.912768","MEAN_MOTION":15.11721395,"ECCENTRICITY":0.02610289,"INCLINATION":82.9341,"RA_OF_ASC_NODE":273.9921,"ARG_OF_PERICENTER":118.3279,"MEAN_ANOMALY":244.4551,"EPHEMERIS_TYPE":0,"CLASSIFICATION_TYPE":"U","NORAD_CAT_ID":12139,"ELEMENT_SET_NO":999,"REV_AT_EPOCH":31729,"BSTAR":0.00061476068,"MEAN_MOTION_DOT":0.00024489,"MEAN_MOTION_DDOT":0},{"OBJECT_NAME":"SL-3 R/B","OBJECT_ID":"1981-046B","EPOCH":"2026-03-27T05:42:31.735584","MEAN_MOTION":15.42412894,"ECCENTRICITY":0.00183023,"INCLINATION":81.2287,"RA_OF_ASC_NODE":268.6614,"ARG_OF_PERICENTER":320.2695,"MEAN_ANOMALY":39.7207,"EPHEMERIS_TYPE":0,"CLASSIFICATION_TYPE":"U","NORAD_CAT_ID":12465,"ELEMENT_SET_NO":999,"REV_AT_EPOCH":44113,"BSTAR":0.00026264919,"MEAN_MOTION_DOT":0.0001145,"MEAN_MOTION_DDOT":0},{"OBJECT_NAME":"SL-3 R/B","OBJECT_ID":"1981-103B","EPOCH":"2026-03-27T06:23:03.964704","MEAN_MOTION":15.21578905,"ECCENTRICITY":0.00126973,"INCLINATION":81.1605,"RA_OF_ASC_NODE":192.8144,"ARG_OF_PERICENTER":223.6618,"MEAN_ANOMALY":136.361,"EPHEMERIS_TYPE":0,"CLASSIFICATION_TYPE":"U","NORAD_CAT_ID":12904,"ELEMENT_SET_NO":999,"REV_AT_EPOCH":97590,"BSTAR":0.00021684238,"MEAN_MOTION_DOT":4.924e-5,"MEAN_MOTION_DDOT":0},{"OBJECT_NAME":"SL-3 R/B","OBJECT_ID":"1982-013B","EPOCH":"2026-03-27T06:24:29.441952","MEAN_MOTION":15.22171579,"ECCENTRICITY":0.002345,"INCLINATION":81.1742,"RA_OF_ASC_NODE":140.1683,"ARG_OF_PERICENTER":119.7192,"MEAN_ANOMALY":240.6378,"EPHEMERIS_TYPE":0,"CLASSIFICATION_TYPE":"U","NORAD_CAT_ID":13068,"ELEMENT_SET_NO":999,"REV_AT_EPOCH":40702,"BSTAR":0.00014641785,"MEAN_MOTION_DOT":3.41e-5,"MEAN_MOTION_DDOT":0},{"OBJECT_NAME":"SL-3 R/B","OBJECT_ID":"1982-039B","EPOCH":"2026-03-27T06:45:56.153088","MEAN_MOTION":15.10176034,"ECCENTRICITY":0.00287394,"INCLINATION":81.1569,"RA_OF_ASC_NODE":195.6776,"ARG_OF_PERICENTER":266.3809,"MEAN_ANOMALY":93.4129,"EPHEMERIS_TYPE":0,"CLASSIFICATION_TYPE":"U","NORAD_CAT_ID":13154,"ELEMENT_SET_NO":999,"REV_AT_EPOCH":38429,"BSTAR":0.0001486357,"MEAN_MOTION_DOT":2.472e-5,"MEAN_MOTION_DDOT":0},{"OBJECT_NAME":"SL-3 R/B","OBJECT_ID":"1982-079B","EPOCH":"2026-03-27T06:03:30.382272","MEAN_MOTION":15.25030662,"ECCENTRICITY":0.00255382,"INCLINATION":81.1483,"RA_OF_ASC_NODE":172.3406,"ARG_OF_PERICENTER":106.9839,"MEAN_ANOMALY":253.4197,"EPHEMERIS_TYPE":0,"CLASSIFICATION_TYPE":"U","NORAD_CAT_ID":13403,"ELEMENT_SET_NO":999,"REV_AT_EPOCH":38037,"BSTAR":0.00023686264,"MEAN_MOTION_DOT":5.996e-5,"MEAN_MOTION_DDOT":0},{"OBJECT_NAME":"SL-14 R/B","OBJECT_ID":"1982-092B","EPOCH":"2026-03-27T05:05:37.245696","MEAN_MOTION":14.86681747,"ECCENTRICITY":0.00189546,"INCLINATION":82.5661,"RA_OF_ASC_NODE":125.0077,"ARG_OF_PERICENTER":240.8474,"MEAN_ANOMALY":190.1791,"EPHEMERIS_TYPE":0,"CLASSIFICATION_TYPE":"U","NORAD_CAT_ID":13553,"ELEMENT_SET_NO":999,"REV_AT_EPOCH":33153,"BSTAR":4.3937394e-5,"MEAN_MOTION_DOT":4.16e-6,"MEAN_MOTION_DDOT":0},{"OBJECT_NAME":"SL-3 R/B","OBJECT_ID":"1983-010B","EPOCH":"2026-03-27T05:29:35.902464","MEAN_MOTION":15.46938369,"ECCENTRICITY":0.00161739,"INCLINATION":81.1053,"RA_OF_ASC_NODE":340.7367,"ARG_OF_PERICENTER":351.662,"MEAN_ANOMALY":8.4353,"EPHEMERIS_TYPE":0,"CLASSIFICATION_TYPE":"U","NORAD_CAT_ID":13819,"ELEMENT_SET_NO":999,"REV_AT_EPOCH":36065,"BSTAR":0.00028113536,"MEAN_MOTION_DOT":0.00014269,"MEAN_MOTION_DDOT":0},{"OBJECT_NAME":"SL-3 R/B","OBJECT_ID":"1983-075B","EPOCH":"2026-03-27T05:55:10.025184","MEAN_MOTION":15.38819492,"ECCENTRICITY":0.00220847,"INCLINATION":97.6144,"RA_OF_ASC_NODE":91.4945,"ARG_OF_PERICENTER":161.9101,"MEAN_ANOMALY":198.2935,"EPHEMERIS_TYPE":0,"CLASSIFICATION_TYPE":"U","NORAD_CAT_ID":14208,"ELEMENT_SET_NO":999,"REV_AT_EPOCH":33285,"BSTAR":0.00027286043,"MEAN_MOTION_DOT":0.00010475,"MEAN_MOTION_DDOT":0},{"OBJECT_NAME":"COSMOS 1536","OBJECT_ID":"1984-013A","EPOCH":"2026-03-27T06:02:11.157792","MEAN_MOTION":15.24055083,"ECCENTRICITY":0.00131546,"INCLINATION":82.5417,"RA_OF_ASC_NODE":90.3853,"ARG_OF_PERICENTER":214.0989,"MEAN_ANOMALY":145.9405,"EPHEMERIS_TYPE":0,"CLASSIFICATION_TYPE":"U","NORAD_CAT_ID":14699,"ELEMENT_SET_NO":999,"REV_AT_EPOCH":27529,"BSTAR":0.00024947693,"MEAN_MOTION_DOT":6.097e-5,"MEAN_MOTION_DDOT":0},{"OBJECT_NAME":"SL-14 R/B","OBJECT_ID":"1984-027B","EPOCH":"2026-03-26T20:44:17.023488","MEAN_MOTION":14.85993908,"ECCENTRICITY":0.00164852,"INCLINATION":82.5412,"RA_OF_ASC_NODE":228.9032,"ARG_OF_PERICENTER":277.2055,"MEAN_ANOMALY":82.7287,"EPHEMERIS_TYPE":0,"CLASSIFICATION_TYPE":"U","NORAD_CAT_ID":14820,"ELEMENT_SET_NO":999,"REV_AT_EPOCH":25018,"BSTAR":6.154624e-5,"MEAN_MOTION_DOT":5.63e-6,"MEAN_MOTION_DDOT":0},{"OBJECT_NAME":"SL-8 R/B","OBJECT_ID":"1985-006B","EPOCH":"2026-03-27T07:44:56.972832","MEAN_MOTION":14.3779572,"ECCENTRICITY":0.00177499,"INCLINATION":74.0448,"RA_OF_ASC_NODE":228.699,"ARG_OF_PERICENTER":141.4313,"MEAN_ANOMALY":237.1852,"EPHEMERIS_TYPE":0,"CLASSIFICATION_TYPE":"U","NORAD_CAT_ID":15483,"ELEMENT_SET_NO":999,"REV_AT_EPOCH":15656,"BSTAR":0.00011338497,"MEAN_MOTION_DOT":3.16e-6,"MEAN_MOTION_DDOT":0},{"OBJECT_NAME":"SL-12 R/B(2)","OBJECT_ID":"1985-042D","EPOCH":"2026-03-27T06:55:56.424000","MEAN_MOTION":14.21987214,"ECCENTRICITY":0.00328561,"INCLINATION":71.1083,"RA_OF_ASC_NODE":50.5436,"ARG_OF_PERICENTER":98.9794,"MEAN_ANOMALY":4.4424,"EPHEMERIS_TYPE":0,"CLASSIFICATION_TYPE":"U","NORAD_CAT_ID":15772,"ELEMENT_SET_NO":999,"REV_AT_EPOCH":11689,"BSTAR":5.3545563e-5,"MEAN_MOTION_DOT":7.2e-7,"MEAN_MOTION_DDOT":0},{"OBJECT_NAME":"SL-14 R/B","OBJECT_ID":"1985-069B","EPOCH":"2026-03-27T05:56:27.551040","MEAN_MOTION":14.8645166,"ECCENTRICITY":0.00199496,"INCLINATION":82.5305,"RA_OF_ASC_NODE":8.4274,"ARG_OF_PERICENTER":131.0027,"MEAN_ANOMALY":229.292,"EPHEMERIS_TYPE":0,"CLASSIFICATION_TYPE":"U","NORAD_CAT_ID":15945,"ELEMENT_SET_NO":999,"REV_AT_EPOCH":17544,"BSTAR":5.3395657e-5,"MEAN_MOTION_DOT":4.98e-6,"MEAN_MOTION_DDOT":0},{"OBJECT_NAME":"SL-16 R/B","OBJECT_ID":"1985-097B","EPOCH":"2026-03-27T06:58:54.782112","MEAN_MOTION":14.16603535,"ECCENTRICITY":0.00094891,"INCLINATION":71.0008,"RA_OF_ASC_NODE":103.497,"ARG_OF_PERICENTER":239.1726,"MEAN_ANOMALY":203.3796,"EPHEMERIS_TYPE":0,"CLASSIFICATION_TYPE":"U","NORAD_CAT_ID":16182,"ELEMENT_SET_NO":999,"REV_AT_EPOCH":8972,"BSTAR":2.4709063e-5,"MEAN_MOTION_DOT":1.0e-8,"MEAN_MOTION_DDOT":0}]
